{
  "norad_id": 62679,
  "name": "FLOCK 4G-30",
  "history": [
    {
      "epoch": "2026-03-28T18:31:16.202784Z",
      "apogee_km": 484.8832774096809,
      "perigee_km": 480.2211646564201,
      "latitude_deg": -7.848374329557069e-06,
      "longitude_deg": 65.5037162181014,
      "height_km": 486.4945322340174,
      "semi_major_axis_km": 6860.68922103305,
      "eccentricity": 0.00033977,
      "inclination_deg": 97.395,
      "raan_deg": 169.5086,
      "arg_perigee_deg": 248.958,
      "mean_anomaly_deg": 111.1296,
      "mean_motion_rev_day": 15.27745952
    },
    {
      "epoch": "2026-03-29T03:57:10.180224Z",
      "apogee_km": 484.8338336067518,
      "perigee_km": 480.16448463685447,
      "latitude_deg": 2.900808667057374e-05,
      "longitude_deg": -75.96903907331041,
      "height_km": 486.5191784567855,
      "semi_major_axis_km": 6860.636159121803,
      "eccentricity": 0.0003403,
      "inclination_deg": 97.3951,
      "raan_deg": 169.8981,
      "arg_perigee_deg": 246.9345,
      "mean_anomaly_deg": 113.1536,
      "mean_motion_rev_day": 15.27763676
    },
    {
      "epoch": "2026-03-30T05:06:12.545280Z",
      "apogee_km": 484.7598482785079,
      "perigee_km": 480.01648117961395,
      "latitude_deg": -1.4764460913721462e-05,
      "longitude_deg": -93.22228793203305,
      "height_km": 486.59981187103995,
      "semi_major_axis_km": 6860.525164729061,
      "eccentricity": 0.0003457,
      "inclination_deg": 97.3952,
      "raan_deg": 170.9376,
      "arg_perigee_deg": 242.1952,
      "mean_anomaly_deg": 117.8937,
      "mean_motion_rev_day": 15.27800752
    }
  ]
}